H1 CPF 01  gfz 2021 05 28 00  6481 terrasarx 
H2 0702601  6201 31698    2021 05 28 00 59 42 2021 06 02 00 00 42   120 1 1  0 0 0
H9
10 0 59363  16542.000000  0    6237957.015   2170128.875  -1969301.864
10 0 59363  16662.000000  0    5998055.570   1898182.642  -2816194.935
10 0 59363  16782.000000  0    5648604.023   1598307.556  -3613654.243
10 0 59363  16902.000000  0    5195368.664   1277626.702  -4347745.949
10 0 59363  17022.000000  0    4646039.213    943497.049  -5005679.133
10 0 59363  17142.000000  0    4010086.297    603346.657  -5576022.081
10 0 59363  17262.000000  0    3298588.611    264515.058  -6048892.145
10 0 59363  17382.000000  0    2524032.148    -65899.577  -6416116.816
10 0 59363  17502.000000  0    1700086.777   -381184.009  -6671362.999
10 0 59363  17622.000000  0     841365.824   -675141.576  -6810236.037
10 0 59363  17742.000000  0     -36830.990   -942209.979  -6830348.013
10 0 59363  17862.000000  0    -918784.759  -1177562.759  -6731352.722
10 0 59363  17982.000000  0   -1788631.531  -1377194.113  -6514951.581
10 0 59363  18102.000000  0   -2630641.697  -1537985.848  -6184867.460
10 0 59363  18222.000000  0   -3429497.809  -1657755.147  -5746786.519
10 0 59363  18342.000000  0   -4170569.755  -1735283.623  -5208271.908
10 0 59363  18462.000000  0   -4840184.744  -1770326.447  -4578644.839
10 0 59363  18582.000000  0   -5425883.923  -1763600.814  -3868834.163
10 0 59363  18702.000000  0   -5916662.452  -1716754.302  -3091196.735
10 0 59363  18822.000000  0   -6303187.126  -1632313.101  -2259308.665
10 0 59363  18942.000000  0   -6577985.422  -1513610.585  -1387731.311
10 0 59363  19062.000000  0   -6735601.426  -1364698.096   -491755.646
10 0 59363  19182.000000  0   -6772713.959  -1190239.321    412870.610
10 0 59363  19302.000000  0   -6688212.663   -995390.515   1310227.088
10 0 59363  19422.000000  0   -6483229.434   -785670.665   2184509.845
10 0 59363  19542.000000  0   -6161124.589   -566824.324   3020318.710
10 0 59363  19662.000000  0   -5727428.150   -344680.396   3802936.825
10 0 59363  19782.000000  0   -5189736.721   -125010.759   4518596.008
10 0 59363  19902.000000  0   -4557569.889     86606.833   5154720.898
10 0 59363  20022.000000  0   -3842192.125    284919.635   5700148.449
10 0 59363  20142.000000  0   -3056403.085    465120.923   6145321.220
10 0 59363  20262.000000  0   -2214300.078    622957.978   6482449.699
10 0 59363  20382.000000  0   -1331019.437    754825.457   6705643.120
10 0 59363  20502.000000  0    -422460.423    857843.143   6811006.022
10 0 59363  20622.000000  0     495001.360    929915.707   6796700.981
10 0 59363  20742.000000  0    1404807.988    969774.106   6662978.409
10 0 59363  20862.000000  0    2290516.874    976998.280   6412172.606
10 0 59363  20982.000000  0    3136097.161    952020.088   6048664.025
10 0 59363  21102.000000  0    3926221.726    896106.701   5578807.876
10 0 59363  21222.000000  0    4646547.920    811324.998   5010828.026
10 0 59363  21342.000000  0    5283983.195    700486.717   4354680.416
10 0 59363  21462.000000  0    5826932.705    567076.193   3621884.072
10 0 59363  21582.000000  0    6265520.595    415162.454   2825320.384
10 0 59363  21702.000000  0    6591778.556    249296.563   1979005.551
10 0 59363  21822.000000  0    6799800.414     74396.007   1097841.946
10 0 59363  21942.000000  0    6885856.275   -104379.091    197349.045
10 0 59363  22062.000000  0    6848463.650   -281756.502   -706617.883
10 0 59363  22182.000000  0    6688412.473   -452485.495  -1598156.505
10 0 59363  22302.000000  0    6408744.290   -611469.622  -2461605.598
10 0 59363  22422.000000  0    6014686.059   -753895.558  -3281826.480
10 0 59363  22542.000000  0    5513541.668   -875354.768  -4044471.886
10 0 59363  22662.000000  0    4914543.822   -971954.472  -4736236.853
10 0 59363  22782.000000  0    4228671.705  -1040415.330  -5345086.375
10 0 59363  22902.000000  0    3468439.466  -1078154.948  -5860457.754
10 0 59363  23022.000000  0    2647659.349  -1083355.429  -6273434.069
10 0 59363  23142.000000  0    1781186.123  -1055012.263  -6576887.039
10 0 59363  23262.000000  0     884647.601   -992964.974  -6765588.873
10 0 59363  23382.000000  0     -25834.336   -897910.223  -6836293.241
10 0 59363  23502.000000  0    -933928.413   -771395.349  -6787784.568
10 0 59363  23622.000000  0   -1823379.781   -615793.776  -6620896.935
10 0 59363  23742.000000  0   -2678294.868   -434261.584  -6338500.724
10 0 59363  23862.000000  0   -3483418.511   -230676.834  -5945457.566
10 0 59363  23982.000000  0   -4224402.460     -9561.813  -5448546.970
10 0 59363  24102.000000  0   -4888062.394    224010.672  -4856359.990
10 0 59363  24222.000000  0   -5462616.296    464524.835  -4179162.614
10 0 59363  24342.000000  0   -5937902.876    706142.975  -3428729.118
10 0 59363  24462.000000  0   -6305572.813    942837.171  -2618145.377
10 0 59363  24582.000000  0   -6559248.148   1168528.557  -1761585.129
10 0 59363  24702.000000  0   -6694645.844   1377231.001   -874063.488
10 0 59363  24822.000000  0   -6709662.416   1563196.180     28830.456
10 0 59363  24942.000000  0   -6604412.629   1721054.640    931214.575
10 0 59363  25062.000000  0   -6381225.062   1845951.383   1817200.305
10 0 59363  25182.000000  0   -6044593.438   1933671.725   2671181.552
10 0 59363  25302.000000  0   -5601083.822   1980753.563   3478118.572
10 0 59363  25422.000000  0   -5059199.789   1984582.644   4223809.903
10 0 59363  25542.000000  0   -4429210.359   1943469.324   4895145.553
10 0 59363  25662.000000  0   -3722946.324   1856705.182   5480337.392
10 0 59363  25782.000000  0   -2953570.286   1724598.543   5969124.186
10 0 59363  25902.000000  0   -2135323.489   1548488.350   6352948.584
10 0 59363  26022.000000  0   -1283255.134   1330735.024   6625101.001
10 0 59363  26142.000000  0    -412941.797   1074689.421   6780829.573
10 0 59363  26262.000000  0     459797.546    784641.050   6817417.055
10 0 59363  26382.000000  0    1319188.005    465745.797   6734225.114
10 0 59363  26502.000000  0    2149782.518    123934.792   6532704.728
10 0 59363  26622.000000  0    2936738.534   -234194.938   6216373.470
10 0 59363  26742.000000  0    3666084.634   -601506.523   5790758.818
10 0 59363  26862.000000  0    4324971.763   -970463.446   5263306.686
10 0 59363  26982.000000  0    4901904.427  -1333282.490   4643257.347
10 0 59363  27102.000000  0    5386948.646  -1682095.529   3941489.270
10 0 59363  27222.000000  0    5771912.151  -2009117.406   3170331.801
10 0 59363  27342.000000  0    6050491.874  -2306817.107   2343349.192
10 0 59363  27462.000000  0    6218384.601  -2568086.981   1475099.973
10 0 59363  27582.000000  0    6273359.309  -2786405.954    580876.235
10 0 59363  27702.000000  0    6215287.596  -2955993.279   -323573.584
10 0 59363  27822.000000  0    6046131.742  -3071948.071  -1222330.709
10 0 59363  27942.000000  0    5769889.379  -3130371.002  -2099596.105
10 0 59363  28062.000000  0    5392497.134  -3128464.857  -2939975.043
10 0 59363  28182.000000  0    4921697.775  -3064612.076  -3728752.033
10 0 59363  28302.000000  0    4366873.342  -2938428.113  -4452149.764
10 0 59363  28422.000000  0    3738849.095  -2750789.367  -5097568.172
10 0 59363  28542.000000  0    3049672.798  -2503834.393  -5653797.398
10 0 59363  28662.000000  0    2312377.964  -2200940.454  -6111202.042
10 0 59363  28782.000000  0    1540735.411  -1846676.838  -6461878.344
10 0 59363  28902.000000  0     748994.760  -1446733.432  -6699780.938
10 0 59363  29022.000000  0     -48376.703  -1007828.027  -6820815.975
10 0 59363  29142.000000  0    -836953.485   -537594.342  -6822903.312
10 0 59363  29262.000000  0   -1602606.527    -44452.070  -6706008.179
10 0 59363  29382.000000  0   -2331750.796    462540.428  -6472141.039
10 0 59363  29502.000000  0   -3011580.538    973847.821  -6125326.244
10 0 59363  29622.000000  0   -3630290.291   1479632.312  -5671540.873
10 0 59363  29742.000000  0   -4177280.467   1969938.431  -5118623.032
10 0 59363  29862.000000  0   -4643343.151   2434886.441  -4476148.137
10 0 59363  29982.000000  0   -5020823.387   2864870.349  -3755273.081
10 0 59363  30102.000000  0   -5303752.718   3250755.094  -2968551.860
10 0 59363  30222.000000  0   -5487953.543   3584071.072  -2129724.091
10 0 59363  30342.000000  0   -5571109.228   3857200.681  -1253477.715
10 0 59363  30462.000000  0   -5552798.607   4063551.105   -355190.346
10 0 59363  30582.000000  0   -5434492.699   4197709.665    549345.321
10 0 59363  30702.000000  0   -5219513.029   4255577.248   1444207.927
10 0 59363  30822.000000  0   -4912950.761   4234474.420   2313637.183
10 0 59363  30942.000000  0   -4521550.518   4133219.059   3142319.645
10 0 59363  31062.000000  0   -4053561.965   3952174.381   3915665.939
10 0 59363  31182.000000  0   -3518562.587   3693263.864   4620072.720
10 0 59363  31302.000000  0   -2927257.109   3359954.726   5243164.113
10 0 59363  31422.000000  0   -2291257.494   2957209.970   5774008.473
10 0 59363  31542.000000  0   -1622849.709   2491410.887   6203306.849
10 0 59363  31662.000000  0    -934751.661   1970251.337   6523550.238
10 0 59363  31782.000000  0    -239869.639   1402606.886   6729142.898
10 0 59363  31902.000000  0     448943.222    798381.620   6816495.066
10 0 59363  32022.000000  0    1119124.367    168334.651   6784081.276
10 0 59363  32142.000000  0    1758629.659   -476110.646   6632465.409
10 0 59363  32262.000000  0    2356149.108  -1123073.208   6364292.256
10 0 59363  32382.000000  0    2901307.120  -1760432.410   5984244.837
10 0 59363  32502.000000  0    3384845.300  -2376055.238   5498968.296
10 0 59363  32622.000000  0    3798783.165  -2958028.248   4916959.228
10 0 59363  32742.000000  0    4136554.478  -3494890.393   4248422.964
10 0 59363  32862.000000  0    4393116.410  -3975862.566   3505098.990
10 0 59363  32982.000000  0    4565029.180  -4391068.679   2700057.037
99
